GLOBAL-2                
1 43812U 18099BG  26193.54257933  .00001252  00000+0  83393-4 0  9993
2 43812  97.3547 229.0016 0007551  74.5757 285.6306 15.08816851415731
GLOBAL-4                
1 44499U 19054E   26193.15324917  .00038641  00000+0  35845-3 0  9991
2 44499  45.0057  92.0863 0004839 175.6688 184.4252 15.66840785384276
GLOBAL-9                
1 47971U 21023G   26192.91910567  .00014163  00000+0  27585-3 0  9998
2 47971  44.9831 111.4178 0003107 140.8754 219.2362 15.47521708298770
GLOBAL-14               
1 49469U 21106A   26193.19665729  .00016087  00000+0  26617-3 0  9994
2 49469  42.0026 142.3164 0017290 204.0869 155.9168 15.51722687262017
GLOBAL-12               
1 49772U 21115BA  26193.53517080  .00024414  00000+0  36078-3 0  9990
2 49772  53.1953 282.5146 0002832  66.9953 293.1358 15.55217842259847
GLOBAL-13               
1 49773U 21115BB  26193.51693628  .00011674  00000+0  23535-3 0  9990
2 49773  53.1982 294.0871 0000900 153.7688 206.3366 15.47038700259689
GLOBAL-17               
1 49949U 21120A   26193.49234104  .00018216  00000+0  28142-3 0  9996
2 49949  41.9943 258.3536 0013418  69.7148 290.5138 15.53622303258835
GLOBAL-16               
1 49950U 21120B   26193.54089700  .00016457  00000+0  27624-3 0  9993
2 49950  41.9943 262.2834 0011564  59.6715 300.5272 15.51399124258785
GLOBAL-18               
1 52196U 22034B   26193.26128028  .00013426  00000+0  26841-3 0  9993
2 52196  52.9800 136.7234 0004322  16.8415 343.2733 15.47134177240844
GLOBAL-19               
1 55982U 23041B   26193.09478966  .00008692  00000+0  22913-3 0  9993
2 55982  42.0022  56.5737 0009181 198.0441 162.0074 15.38628097185766
GLOBAL-5                
1 55983U 23041C   26192.99766715  .00008162  00000+0  21560-3 0  9993
2 55983  42.0017  56.6672 0007997 193.1516 166.9117 15.38639725185752
